STARLINK-2427           
1 47837U 21018BC  21159.91667824  .00014574  00000-0  17396-3 0  9992
2 47837  53.0498 103.2908 0005096 273.9704  80.3842 15.61323836 15015
STARLINK-2429           
1 47838U 21018BD  21159.40114064  .00000523  00000-0  54016-4 0  9990
2 47838  53.0559 121.6199 0001803  62.7812 297.3360 15.06387618 15041
STARLINK-2431           
1 47839U 21018BE  21159.66668981  .00026855  00000-0  98363-3 0  9999
2 47839  53.0538 113.4280 0001907  83.3975 234.7491 15.27851715  1775
STARLINK-2432           
1 47840U 21018BF  21159.91667824 -.01070952  00000-0 -16398-1 0  9990
2 47840  53.0453 103.4054 0003823 282.3725   4.7419 15.56374768 15011
STARLINK-2433           
1 47841U 21018BG  21159.91667824 -.01056374  00000-0 -16063-1 0  9992
2 47841  53.0450 103.3482 0001082  77.5844 215.0521 15.56549607 15011
STARLINK-2434           
1 47842U 21018BH  21159.42233255  .00001956  00000-0  15013-3 0  9995
2 47842  53.0553 131.5207 0001806  72.8262 287.2924 15.06407727 14962
STARLINK-2435           
1 47843U 21018BJ  21159.39516893  .00000342  00000-0  41847-4 0  9997
2 47843  53.0553 126.6453 0001690  73.9548 286.1627 15.06390631 14997
STARLINK-2446           
1 47844U 21018BK  21159.59281878  .00000442  00000-0  48594-4 0  9999
2 47844  53.0550 120.7585 0002011  74.5873 285.5338 15.06398787 14747
STARLINK-2453           
1 47845U 21018BL  21159.41219119  .00000393  00000-0  45304-4 0  9991
2 47845  53.0563 121.5696 0001768  62.7617 297.3552 15.06396080 15055
STARLINK-2456           
1 47846U 21018BM  21159.74023743  .00000214  00000-0  33250-4 0  9993
2 47846  53.0560 120.0970 0001956  70.6467 289.4733 15.06403664 14769
YAOGAN-31 K             
1 47854U 21020A   21159.86254821  .00001339  00000-0  24175-2 0  9994
2 47854  63.4106 288.2766 0012448 321.9985  37.8966 13.45215378 11803
YAOGAN-31 L             
1 47856U 21020C   21159.86272560  .00001064  00000-0  19520-2 0  9999
2 47856  63.4101 289.1566 0012261 320.5216  39.3987 13.45214815 11796
YAOGAN-31 M             
1 47857U 21020D   21159.71408585 -.00000090  00000-0  00000+0 0  9991
2 47857  63.4110 288.6641 0012214 321.2914  38.7238 13.45208610 11783
STARLINK-2258           
1 47860U 21021A   21159.91667824 -.00990949  00000-0 -32442-1 0  9990
2 47860  53.0480 150.4416 0001383  58.8418 282.0619 15.33726877 14076
STARLINK-2280           
1 47861U 21021B   21159.91667824  .00062111  00000-0  44342-3 0  9994
2 47861  53.0471 148.1150 0002477  18.3476  64.8312 15.73208358 14109
STARLINK-2291           
1 47862U 21021C   21159.91667824  .00023599  00000-0  17179-3 0  9990
2 47862  53.0472 148.1265 0002478  25.3019  52.1872 15.73236478 14105
STARLINK-2293           
1 47863U 21021D   21159.91667824 -.00045503  00000-0 -32048-3 0  9994
2 47863  53.0473 148.1447 0002262  26.6457  41.9133 15.73268718 14108
STARLINK-2304           
1 47864U 21021E   21159.91667824 -.00051570  00000-0 -36399-3 0  9999
2 47864  53.0472 148.1309 0002646  18.5495  56.9872 15.73271734 14101
STARLINK-2310           
1 47865U 21021F   21159.91667824  .00003539  00000-0  29562-4 0  9995
2 47865  53.0473 148.1372 0002414  20.5665  52.4474 15.73255333 14115
STARLINK-2320           
1 47866U 21021G   21159.91667824  .00062854  00000-0  44845-3 0  9991
2 47866  53.0474 148.1392 0002563  30.6476  41.6910 15.73217739 14119
STARLINK-2321           
1 47867U 21021H   21159.91667824  .00059736  00000-0  42717-3 0  9993
2 47867  53.0470 148.1269 0002473  17.5270  59.3263 15.73185717 14112
STARLINK-2323           
1 47868U 21021J   21159.91667824 -.00050755  00000-0 -35834-3 0  9990
2 47868  53.0472 148.1340 0002343  20.9583  52.7141 15.73259597 14116
STARLINK-2324           
1 47869U 21021K   21159.91667824  .00051608  00000-0  36959-3 0  9996
2 47869  53.0472 148.1261 0002461  14.0668  64.0528 15.73211934 14116
STARLINK-2326           
1 47870U 21021L   21159.91667824 -.01042888  00000-0 -67984-1 0  9991
2 47870  53.0513 154.3291 0001573  63.6009 135.0333 15.10226919 14032
