CREATION_DATE,OBJECT_NAME,OBJECT_ID,EPOCH,MEAN_MOTION,ECCENTRICITY,INCLINATION,RA_OF_ASC_NODE,ARG_OF_PERICENTER,MEAN_ANOMALY,EPHEMERIS_TYPE,CLASSIFICATION_TYPE,NORAD_CAT_ID,ELEMENT_SET_NO,REV_AT_EPOCH,BSTAR,MEAN_MOTION_DOT,MEAN_MOTION_DDOT,SEMIMAJOR_AXIS,PERIOD,APOAPSIS,PERIAPSIS,OBJECT_TYPE,RCS_SIZE,COUNTRY_CODE,LAUNCH_DATE
2021-06-08T22:36:11,STARLINK-2427,2021-018BC,2021-06-08T22:00:00.999936,15.61323836,0.0005096,53.0498,103.2908,273.9704,80.3842,0,U,47837,999,1501,0.00017396,0.00014574,0,6761.969,92.229,387.28,380.388,PAYLOAD,LARGE,US,3/11/2021
2021-06-08T18:36:59,STARLINK-2429,2021-018BD,2021-06-08T09:37:38.551296,15.06387618,0.0001803,53.0559,121.6199,62.7812,297.336,0,U,47838,999,1504,0.000054016,0.00000523,0,6925.387,95.593,548.5,546.003,PAYLOAD,LARGE,US,3/11/2021
2021-06-08T18:36:59,STARLINK-2431,2021-018BE,2021-06-08T16:00:01.999584,15.27851715,0.0001907,53.0538,113.428,83.3975,234.7491,0,U,47839,999,177,0.00098363,0.00026855,0,6860.373,94.25,483.546,480.929,PAYLOAD,LARGE,US,3/11/2021
2021-06-08T22:36:11,STARLINK-2432,2021-018BF,2021-06-08T22:00:00.999936,15.56374768,0.0003823,53.0453,103.4054,282.3725,4.7419,0,U,47840,999,1501,-0.016398,-0.01070952,0,6776.296,92.523,400.752,395.571,PAYLOAD,LARGE,US,3/11/2021
2021-06-08T22:36:11,STARLINK-2433,2021-018BG,2021-06-08T22:00:00.999936,15.56549607,0.0001082,53.045,103.3482,77.5844,215.0521,0,U,47841,999,1501,-0.016063,-0.01056374,0,6775.789,92.512,398.387,396.921,PAYLOAD,LARGE,US,3/11/2021
2021-06-08T18:36:59,STARLINK-2434,2021-018BH,2021-06-08T10:08:09.532320,15.06407727,0.0001806,53.0553,131.5207,72.8262,287.2924,0,U,47842,999,1496,0.00015013,0.00001956,0,6925.325,95.592,548.441,545.939,PAYLOAD,LARGE,US,3/11/2021
2021-06-08T18:36:59,STARLINK-2435,2021-018BJ,2021-06-08T09:29:02.595552,15.06390631,0.000169,53.0553,126.6453,73.9548,286.1627,0,U,47843,999,1499,0.000041847,0.00000342,0,6925.377,95.593,548.413,546.072,PAYLOAD,LARGE,US,3/11/2021
2021-06-08T22:36:11,STARLINK-2446,2021-018BK,2021-06-08T14:13:39.542592,15.06398787,0.0002011,53.055,120.7585,74.5873,285.5338,0,U,47844,999,1474,0.000048594,0.00000442,0,6925.352,95.592,548.61,545.825,PAYLOAD,LARGE,US,3/11/2021
2021-06-08T18:36:59,STARLINK-2453,2021-018BL,2021-06-08T09:53:33.318816,15.0639608,0.0001768,53.0563,121.5696,62.7617,297.3552,0,U,47845,999,1505,0.000045304,0.00000393,0,6925.361,95.592,548.45,546.001,PAYLOAD,LARGE,US,3/11/2021
2021-06-08T22:26:11,STARLINK-2456,2021-018BM,2021-06-08T17:45:56.513952,15.06403664,0.0001956,53.056,120.097,70.6467,289.4733,0,U,47846,999,1476,0.00003325,0.00000214,0,6925.337,95.592,548.557,545.848,PAYLOAD,LARGE,US,3/11/2021
2021-06-08T21:56:10,YAOGAN-31 K,2021-020A,2021-06-08T20:42:04.165344,13.45215378,0.0012448,63.4106,288.2766,321.9985,37.8966,0,U,47854,999,1180,0.0024175,0.00001339,0,7468.051,107.046,1099.213,1080.62,PAYLOAD,LARGE,PRC,3/13/2021
2021-06-08T21:56:10,YAOGAN-31 L,2021-020C,2021-06-08T20:42:19.491840,13.45214815,0.0012261,63.4101,289.1566,320.5216,39.3987,0,U,47856,999,1179,0.001952,0.00001064,0,7468.053,107.046,1099.075,1080.762,PAYLOAD,LARGE,PRC,3/13/2021
2021-06-08T22:26:11,YAOGAN-31 M,2021-020D,2021-06-08T17:08:17.017440,13.4520861,0.0012214,63.411,288.6641,321.2914,38.7238,0,U,47857,999,1178,0,-0.0000009,0,7468.076,107.047,1099.063,1080.82,PAYLOAD,LARGE,PRC,3/13/2021
2021-06-08T22:56:10,STARLINK-2258,2021-021A,2021-06-08T22:00:00.999936,15.33726877,0.0001383,53.048,150.4416,58.8418,282.0619,0,U,47860,999,1407,-0.032442,-0.00990949,0,6842.842,93.889,465.653,463.76,PAYLOAD,LARGE,US,3/14/2021
2021-06-08T22:56:10,STARLINK-2280,2021-021B,2021-06-08T22:00:00.999936,15.73208358,0.0002477,53.0471,148.115,18.3476,64.8312,0,U,47861,999,1410,0.00044342,0.00062111,0,6727.871,91.533,351.403,348.07,PAYLOAD,LARGE,US,3/14/2021
2021-06-08T22:56:10,STARLINK-2291,2021-021C,2021-06-08T22:00:00.999936,15.73236478,0.0002478,53.0472,148.1265,25.3019,52.1872,0,U,47862,999,1410,0.00017179,0.00023599,0,6727.791,91.531,351.323,347.989,PAYLOAD,LARGE,US,3/14/2021
2021-06-08T22:46:11,STARLINK-2293,2021-021D,2021-06-08T22:00:00.999936,15.73268718,0.0002262,53.0473,148.1447,26.6457,41.9133,0,U,47863,999,1410,-0.00032048,-0.00045503,0,6727.699,91.529,351.086,348.042,PAYLOAD,LARGE,US,3/14/2021
2021-06-08T22:46:11,STARLINK-2304,2021-021E,2021-06-08T22:00:00.999936,15.73271734,0.0002646,53.0472,148.1309,18.5495,56.9872,0,U,47864,999,1410,-0.00036399,-0.0005157,0,6727.691,91.529,351.336,347.776,PAYLOAD,LARGE,US,3/14/2021
2021-06-08T22:46:11,STARLINK-2310,2021-021F,2021-06-08T22:00:00.999936,15.73255333,0.0002414,53.0473,148.1372,20.5665,52.4474,0,U,47865,999,1411,0.000029562,0.00003539,0,6727.737,91.53,351.226,347.978,PAYLOAD,LARGE,US,3/14/2021
2021-06-08T22:46:11,STARLINK-2320,2021-021G,2021-06-08T22:00:00.999936,15.73217739,0.0002563,53.0474,148.1392,30.6476,41.691,0,U,47866,999,1411,0.00044845,0.00062854,0,6727.845,91.532,351.434,347.985,PAYLOAD,LARGE,US,3/14/2021
2021-06-08T22:36:11,STARLINK-2321,2021-021H,2021-06-08T22:00:00.999936,15.73185717,0.0002473,53.047,148.1269,17.527,59.3263,0,U,47867,999,1411,0.00042717,0.00059736,0,6727.936,91.534,351.465,348.137,PAYLOAD,LARGE,US,3/14/2021
2021-06-08T22:46:11,STARLINK-2323,2021-021J,2021-06-08T22:00:00.999936,15.73259597,0.0002343,53.0472,148.134,20.9583,52.7141,0,U,47868,999,1411,-0.00035834,-0.00050755,0,6727.725,91.53,351.167,348.014,PAYLOAD,LARGE,US,3/14/2021
2021-06-08T22:56:10,STARLINK-2324,2021-021K,2021-06-08T22:00:00.999936,15.73211934,0.0002461,53.0472,148.1261,14.0668,64.0528,0,U,47869,999,1411,0.00036959,0.00051608,0,6727.861,91.532,351.382,348.07,PAYLOAD,LARGE,US,3/14/2021
2021-06-08T22:36:11,STARLINK-2326,2021-021L,2021-06-08T22:00:00.999936,15.10226919,0.0001573,53.0513,154.3291,63.6009,135.0333,0,U,47870,999,1403,-0.067984,-0.01042888,0,6913.644,95.35,536.597,534.422,PAYLOAD,LARGE,US,3/14/2021
